NORAD_CAT_ID,OBJECT_NAME,OBJECT_TYPE,EPOCH,MEAN_MOTION,ECCENTRICITY,INCLINATION,RA_OF_ASC_NODE,ARG_OF_PERICENTER,MEAN_ANOMALY,BSTAR,MEAN_MOTION_DOT,MEAN_MOTION_DDOT,TLE_LINE0,TLE_LINE1,TLE_LINE2,SEMIMAJOR_AXIS,PERIOD,APOGEE,PERIGEE,DECAYED
49425.0,STARLINK-3139,PAYLOAD,2022-07-24 01:44:17,15.0882609,0.0001756,53.2194,55.5668,52.415,307.7002,0.0001435,1.996e-05,0.0,0 STARLINK-3139,1 49425U 21104T   22205.07242374  .00001996  00000-0  14350-3 0  9993,2 49425  53.2194  55.5668 0001756  52.4150 307.7002 15.08826090 38662,6917.9230000000025,95.438,541.003,538.573,0.0
49425.0,STARLINK-3139,PAYLOAD,2022-07-24 20:48:55,15.08803414,0.000148,53.2195,51.9989,54.5025,305.6105,0.00067551,0.00010468,0.0,0 STARLINK-3139,1 49425U 21104T   22205.86730964  .00010468  00000-0  67551-3 0  9992,2 49425  53.2195  51.9989 0001480  54.5025 305.6105 15.08803414 38786,6917.9919999999975,95.44,540.881,538.8330000000002,0.0
49425.0,STARLINK-3139,PAYLOAD,2022-07-25 01:35:03,15.08845235,0.0001804,53.219,51.1072,51.3403,308.775,-5.434e-05,-1.153e-05,0.0,0 STARLINK-3139,1 49425U 21104T   22206.06601818 -.00001153  00000-0 -54340-4 0  9996,2 49425  53.2190  51.1072 0001804  51.3403 308.7750 15.08845235 39880,6917.864000000001,95.437,540.977,538.481,0.0
49425.0,STARLINK-3139,PAYLOAD,2022-07-25 15:53:32,15.08836038,0.0001811999999999,53.219,48.431,53.7857,306.3303,-4.4132e-05,-9.9e-06,0.0,0 STARLINK-3139,1 49425U 21104T   22206.66218243 -.00000990  00000-0 -44132-4 0  9994,2 49425  53.2190  48.4310 0001812  53.7857 306.3303 15.08836038 38903,6917.892,95.438,541.011,538.504,0.0
49425.0,STARLINK-3139,PAYLOAD,2022-07-26 06:12:00,15.08838089,0.0001824,53.2192,45.7549,52.9778,307.1381,7.4291e-05,8.94e-06,0.0,0 STARLINK-3139,1 49425U 21104T   22207.25833906  .00000894  00000-0  74291-4 0  9999,2 49425  53.2192  45.7549 0001824  52.9778 307.1381 15.08838089 38997,6917.886,95.438,541.013,538.489,0.0
49425.0,STARLINK-3139,PAYLOAD,2022-07-26 17:19:41,15.08846733,0.0001716,53.2192,43.6727,57.6125,302.5033,4.2757e-05,3.93e-06,0.0,0 STARLINK-3139,1 49425U 21104T   22207.72201372  .00000393  00000-0  42757-4 0  9993,2 49425  53.2192  43.6727 0001716  57.6125 302.5033 15.08846733 40137,6917.86,95.437,540.9119999999998,538.538,0.0
49425.0,STARLINK-3139,PAYLOAD,2022-07-26 20:30:28,15.08846706,0.0001799,53.2192,43.0785,53.4734,306.6423,5.198600000000002e-05,5.39e-06,0.0,0 STARLINK-3139,1 49425U 21104T   22207.85449323  .00000539  00000-0  51986-4 0  9993,2 49425  53.2192  43.0785 0001799  53.4734 306.6423 15.08846706 39086,6917.86,95.437,540.969,538.48,0.0
49425.0,STARLINK-3139,PAYLOAD,2022-07-27 12:24:19,15.08846349,0.0001748,53.2195,40.1048,53.6097,306.5056,0.00016045,2.267e-05,0.0,0 STARLINK-3139,1 49425U 21104T   22208.51688754  .00002267  00000-0  16045-3 0  9996,2 49425  53.2195  40.1048 0001748  53.6097 306.5056 15.08846349 39182,6917.861,95.437,540.935,538.5169999999998,0.0
49425.0,STARLINK-3139,PAYLOAD,2022-07-27 18:45:52,15.08841127,0.0001671,53.2196,38.9151,54.5113,305.6035,5.9403e-05,6.58e-06,0.0,0 STARLINK-3139,1 49425U 21104T   22208.78185362  .00000658  00000-0  59403-4 0  9990,2 49425  53.2196  38.9151 0001671  54.5113 305.6035 15.08841127 39228,6917.877,95.437,540.898,538.586,0.0
49425.0,STARLINK-3139,PAYLOAD,2022-07-27 20:21:15,15.08839486,0.0001673,53.2196,38.618,53.0748,307.0397,2.9242e-05,1.77e-06,0.0,0 STARLINK-3139,1 49425U 21104T   22208.84809553  .00000177  00000-0  29242-4 0  9996,2 49425  53.2196  38.6180 0001673  53.0748 307.0397 15.08839486 40300,6917.882,95.438,540.904,538.59,0.0
49425.0,STARLINK-3139,PAYLOAD,2022-07-28 12:15:06,15.08843862,0.0001665,53.2198,35.6441,53.4042,306.7103,4.1226e-05,3.68e-06,0.0,0 STARLINK-3139,1 49425U 21104T   22209.51049122  .00000368  00000-0  41226-4 0  9997,2 49425  53.2198  35.6441 0001665  53.4042 306.7103 15.08843862 39336,6917.869000000002,95.437,540.885,538.582,0.0
49425.0,STARLINK-3139,PAYLOAD,2022-07-28 18:36:38,15.08850137,0.0001629999999999,53.2196,34.4548,53.3563,306.7579,2.7934e-05,1.57e-06,0.0,0 STARLINK-3139,1 49425U 21104T   22209.77544632  .00000157  00000-0  27934-4 0  9997,2 49425  53.2196  34.4548 0001630  53.3563 306.7579 15.08850137 39372,6917.849,95.437,540.842,538.587,0.0
49425.0,STARLINK-3139,PAYLOAD,2022-07-28 21:47:24,15.08850538,0.0001639,53.2196,33.8601,53.3938,306.7205,3.0172e-05,1.92e-06,0.0,0 STARLINK-3139,1 49425U 21104T   22209.90792512  .00000192  00000-0  30172-4 0  9991,2 49425  53.2196  33.8601 0001639  53.3938 306.7205 15.08850538 40463,6917.848000000001,95.437,540.847,538.5790000000002,0.0
49425.0,STARLINK-3139,PAYLOAD,2022-07-29 05:44:21,15.08842334,0.0001699999999999,53.2197,32.3731,52.5718,307.5429,-0.00011092,-2.053e-05,0.0,0 STARLINK-3139,1 49425U 21104T   22210.23913290 -.00002053  00000-0 -11092-3 0  9996,2 49425  53.2197  32.3731 0001700  52.5718 307.5429 15.08842334 40516,6917.873000000001,95.437,540.914,538.562,0.0
49425.0,STARLINK-3139,PAYLOAD,2022-07-29 18:27:26,15.08834968,0.0001676999999999,53.2193,29.9944,53.02,307.0946,1.6235e-05,-3e-07,0.0,0 STARLINK-3139,1 49425U 21104T   22210.76905355 -.00000030  00000-0  16235-4 0  9994,2 49425  53.2193  29.9944 0001677  53.0200 307.0946 15.08834968 39527,6917.896,95.438,540.9209999999998,538.601,0.0
49425.0,STARLINK-3139,PAYLOAD,2022-07-30 05:35:08,15.08838164,0.000157,53.2193,27.9129,54.1772,305.9366,2.822e-05,1.61e-06,0.0,0 STARLINK-3139,1 49425U 21104T   22211.23273161  .00000161  00000-0  28220-4 0  9991,2 49425  53.2193  27.9129 0001570  54.1772 305.9366 15.08838164 39590,6917.886,95.438,540.837,538.665,0.0
49425.0,STARLINK-3139,PAYLOAD,2022-07-30 18:18:12,15.08842287,0.0001699999999999,53.2194,25.5345,52.4253,307.6893,2.9345e-05,1.79e-06,0.0,0 STARLINK-3139,1 49425U 21104T   22211.76264922  .00000179  00000-0  29345-4 0  9992,2 49425  53.2194  25.5345 0001700  52.4253 307.6893 15.08842287 39679,6917.873000000001,95.437,540.914,538.562,0.0
49425.0,STARLINK-3139,PAYLOAD,2022-07-31 11:47:27,15.08838255,0.0001691,53.2196,22.2638,50.8275,309.2867,0.00010314,1.354e-05,0.0,0 STARLINK-3139,1 49425U 21104T   22212.49128848  .00001354  00000-0  10314-3 0  9990,2 49425  53.2196  22.2638 0001691  50.8275 309.2867 15.08838255 39786,6917.886,95.438,540.9209999999998,538.581,0.0
49425.0,STARLINK-3139,PAYLOAD,2022-07-31 18:09:00,15.08829932,0.0001692,53.2197,21.0745,51.9056,308.2089,7.5223e-06,-1.68e-06,0.0,0 STARLINK-3139,1 49425U 21104T   22212.75625754 -.00000168  00000-0  75223-5 0  9992,2 49425  53.2197  21.0745 0001692  51.9056 308.2089 15.08829932 40894,6917.911,95.438,540.947,538.606,0.0
49425.0,STARLINK-3139,PAYLOAD,2022-08-01 13:13:38,15.08839254,0.0001983,53.2187,17.5059,59.0798,301.0389,-6.0742e-05,-1.255e-05,0.0,0 STARLINK-3139,1 49425U 21104T   22213.55113811 -.00001255  00000-0 -60742-4 0  9995,2 49425  53.2187  17.5059 0001983  59.0798 301.0389 15.08839254 39942,6917.8830000000025,95.438,541.119,538.376,0.0
49425.0,STARLINK-3139,PAYLOAD,2022-08-01 19:35:10,15.08839649,0.0001742,53.2184,16.3166,42.5605,317.5521,7.4122e-06,-1.7e-06,0.0,0 STARLINK-3139,1 49425U 21104T   22213.81609491 -.00000170  00000-0  74122-5 0  9990,2 49425  53.2184  16.3166 0001742  42.5605 317.5521 15.08839649 41055,6917.880999999999,95.438,540.952,538.5409999999998,0.0
49425.0,STARLINK-3139,PAYLOAD,2022-08-02 03:32:06,15.08839158,0.0001699999999999,53.2181,14.83,47.1311,312.9824,2.058000000000001e-07,-2.85e-06,0.0,0 STARLINK-3139,1 49425U 21104T   22214.14729593 -.00000285  00000-0  20580-6 0  9990,2 49425  53.2181  14.8300 0001700  47.1311 312.9824 15.08839158 40031,6917.8830000000025,95.438,540.924,538.572,0.0
49425.0,STARLINK-3139,PAYLOAD,2022-08-02 21:01:20,15.08842774,0.0001754,53.2181,11.5589,49.7046,310.4099,0.00011808,1.592e-05,0.0,0 STARLINK-3139,1 49425U 21104T   22214.87592947  .00001592  00000-0  11808-3 0  9992,2 49425  53.2181  11.5589 0001754  49.7046 310.4099 15.08842774 40143,6917.871999999999,95.437,540.95,538.524,0.0
49425.0,STARLINK-3139,PAYLOAD,2022-08-03 03:22:53,15.08839736,0.0001669,53.2181,10.3693,47.78100000000001,312.3323,0.0001155,1.551e-05,0.0,0 STARLINK-3139,1 49425U 21104T   22215.14089155  .00001551  00000-0  11550-3 0  9994,2 49425  53.2181  10.3693 0001669  47.7810 312.3323 15.08839736 41256,6917.880999999999,95.438,540.901,538.592,0.0
49425.0,STARLINK-3139,PAYLOAD,2022-08-03 09:44:26,15.08835073,0.0001879,53.218,9.1801,48.4437,311.6716,5.3706e-05,5.67e-06,0.0,0 STARLINK-3139,1 49425U 21104T   22215.40585741  .00000567  00000-0  53706-4 0  9991,2 49425  53.2180   9.1801 0001879  48.4437 311.6716 15.08835073 40222,6917.895,95.438,541.06,538.461,0.0
49425.0,STARLINK-3139,PAYLOAD,2022-08-03 19:16:45,15.08832341,0.0001838,53.2179,7.3964,50.9289,309.1866,2.3749e-06,-2.5e-06,0.0,0 STARLINK-3139,1 49425U 21104T   22215.80330241 -.00000250  00000-0  23749-5 0  9993,2 49425  53.2179   7.3964 0001838  50.9289 309.1866 15.08832341 40287,6917.904,95.438,541.04,538.497,0.0
49425.0,STARLINK-3139,PAYLOAD,2022-08-04 09:35:13,15.08833114,0.0001695,53.2181,4.7197,49.7428,310.3712,-7.526100000000001e-05,-1.485e-05,0.0,0 STARLINK-3139,1 49425U 21104T   22216.39946622 -.00001485  00000-0 -75261-4 0  9991,2 49425  53.2181   4.7197 0001695  49.7428 310.3712 15.08833114 41443,6917.901,95.438,540.939,538.594,0.0
49425.0,STARLINK-3139,PAYLOAD,2022-08-04 12:46:00,15.08828541,0.0001686999999999,53.2185,4.125,56.7145,303.4008,-0.00010013,-1.881e-05,0.0,0 STARLINK-3139,1 49425U 21104T   22216.53195055 -.00001881  00000-0 -10013-3 0  9996,2 49425  53.2185   4.1250 0001687  56.7145 303.4008 15.08828541 40398,6917.915,95.438,540.947,538.613,0.0
49425.0,STARLINK-3139,PAYLOAD,2022-08-04 19:07:33,15.08827283,0.0001704,53.2183,2.9356,50.9735,309.1409,-0.00011145,-2.061e-05,0.0,0 STARLINK-3139,1 49425U 21104T   22216.79691378 -.00002061  00000-0 -11145-3 0  9991,2 49425  53.2183   2.9356 0001704  50.9735 309.1409 15.08827283 41504,6917.919,95.438,540.9630000000002,538.605,0.0
